STARLINK-36866          
1 67895U 26035S   26061.91668981 -.00957332  31357-3 -15779-2 0  9998
2 67895  97.2766 353.7272 0000988  90.6680 159.0565 16.03170049  2663
STARLINK-36877          
1 67896U 26035T   26061.91668981 -.00946883  30629-3 -15853-2 0  9992
2 67896  97.2768 353.7241 0000990  94.4162 148.1555 16.02901791  2665
STARLINK-36870          
1 67897U 26035U   26061.91668981 -.00990073  33437-3 -16165-2 0  9990
2 67897  97.2762 353.7286 0000989 111.8555 141.7743 16.03334555  2664
STARLINK-36810          
1 67898U 26035V   26061.91668981 -.01013323  34959-3 -16422-2 0  9992
2 67898  97.2760 353.7299 0000897 108.4044 148.3078 16.03464957  2664
STARLINK-36878          
1 67899U 26035W   26061.91668981 -.01092267  40274-3 -17470-2 0  9998
2 67899  97.2758 353.7326 0001038 114.3459 148.4875 16.03698145  2661
STARLINK-36361          
1 67900U 26035X   26061.91668981 -.01104704  41194-3 -17525-2 0  9994
2 67900  97.2757 353.7338 0001014 123.1436 143.0460 16.03837944  2666
STARLINK-36336          
1 67901U 26035Y   26061.91668981 -.01115417  42100-3 -17353-2 0  9995
2 67901  97.2759 353.7386 0000906 114.5406 161.8289 16.04166794  2714
STARLINK-36876          
1 67902U 26035Z   26061.91668981 -.01117803  42144-3 -17647-2 0  9991
2 67902  97.2761 353.7359 0000968 100.6881 168.4291 16.03920972  2664
STARLINK-36257          
1 67903U 26035AA  26061.91668981 -.01118241  42226-3 -17546-2 0  9998
2 67903  97.2758 353.7365 0000905  96.5414 175.6520 16.04023963  2710
